NORAD_CAT_ID,OBJECT_NAME,OBJECT_TYPE,EPOCH,MEAN_MOTION,ECCENTRICITY,INCLINATION,RA_OF_ASC_NODE,ARG_OF_PERICENTER,MEAN_ANOMALY,BSTAR,MEAN_MOTION_DOT,MEAN_MOTION_DDOT,TLE_LINE0,TLE_LINE1,TLE_LINE2,SEMIMAJOR_AXIS,PERIOD,APOGEE,PERIGEE,DECAYED
51753.0,STARLINK-3507,PAYLOAD,2022-11-23 15:30:12,15.08848576,0.0002772,53.2162,305.3152,26.0483,334.0648,6.3061e-05,7.15e-06,0.0,0 STARLINK-3507,1 51753U 22016AR  22327.64597508  .00000715  00000-0  63061-4 0  9995,2 51753  53.2162 305.3152 0002772  26.0483 334.0648 15.08848576 42233,6917.854,95.437,541.637,537.802,0.0
51753.0,STARLINK-3507,PAYLOAD,2022-11-23 21:51:44,15.08844214,0.0002737,53.2161,304.1261,29.4086,330.706,-3.7204e-05,-8.81e-06,0.0,0 STARLINK-3507,1 51753U 22016AR  22327.91093553 -.00000881  00000-0 -37204-4 0  9992,2 51753  53.2161 304.1261 0002737  29.4086 330.7060 15.08844214 43335,6917.868,95.437,541.626,537.839,0.0
51753.0,STARLINK-3507,PAYLOAD,2022-11-24 04:13:18,15.08818754,0.0002925,53.2164,302.9367,32.8867,327.2306,0.00070742,0.00010982,0.0,0 STARLINK-3507,1 51753U 22016AR  22328.17591228  .00010982  00000-0  70742-3 0  9997,2 51753  53.2164 302.9367 0002925  32.8867 327.2306 15.08818754 43373,6917.945,95.439,541.8340000000002,537.7869999999998,0.0
51753.0,STARLINK-3507,PAYLOAD,2022-11-24 07:24:03,15.08843515,0.0002719,53.2172,302.3418,31.7669,328.3487,-4.6141e-05,-1.023e-05,0.0,0 STARLINK-3507,1 51753U 22016AR  22328.30837686 -.00001023  00000-0 -46141-4 0  9998,2 51753  53.2172 302.3418 0002719  31.7669 328.3487 15.08843515 43399,6917.87,95.437,541.616,537.854,0.0
51753.0,STARLINK-3507,PAYLOAD,2022-11-24 21:42:31,15.0884768,0.0002788999999999,53.2172,299.6652,31.6835,328.4324,4.6279e-05,4.48e-06,0.0,0 STARLINK-3507,1 51753U 22016AR  22328.90453286  .00000448  00000-0  46279-4 0  9994,2 51753  53.2172 299.6652 0002789  31.6835 328.4324 15.08847680 42429,6917.857,95.437,541.651,537.793,0.0
51753.0,STARLINK-3507,PAYLOAD,2022-11-25 04:04:04,15.08838496,0.0002848,53.217,298.4755,27.8601,332.2543,2.9979e-05,1.89e-06,0.0,0 STARLINK-3507,1 51753U 22016AR  22329.16950207  .00000189  00000-0  29979-4 0  9998,2 51753  53.2170 298.4755 0002848  27.8601 332.2543 15.08838496 43525,6917.885,95.438,541.72,537.78,0.0
51753.0,STARLINK-3507,PAYLOAD,2022-11-25 07:14:51,15.08838637,0.0002885,53.217,297.881,27.4077,332.7067,2.7795e-05,1.54e-06,0.0,0 STARLINK-3507,1 51753U 22016AR  22329.30198214  .00000154  00000-0  27795-4 0  9992,2 51753  53.2170 297.8810 0002885  27.4077 332.7067 15.08838637 42481,6917.885,95.438,541.745,537.754,0.0
51753.0,STARLINK-3507,PAYLOAD,2022-11-25 15:11:46,15.08846091,0.0002821,53.2168,296.3941,27.6652,332.449,8.677e-05,1.093e-05,0.0,0 STARLINK-3507,1 51753U 22016AR  22329.63317649  .00001093  00000-0  86770-4 0  9994,2 51753  53.2168 296.3941 0002821  27.6652 332.4490 15.08846091 43591,6917.861999999999,95.437,541.678,537.775,0.0
51753.0,STARLINK-3507,PAYLOAD,2022-11-25 21:33:18,15.088530300000002,0.0002933,53.2159,295.2037,27.5471,332.5676,-5.5747e-06,-3.77e-06,0.0,0 STARLINK-3507,1 51753U 22016AR  22329.89813000 -.00000377  00000-0 -55747-5 0  9991,2 51753  53.2159 295.2037 0002933  27.5471 332.5676 15.08853030 42572,6917.840999999999,95.437,541.735,537.677,0.0
51753.0,STARLINK-3507,PAYLOAD,2022-11-26 07:05:37,15.08855869,0.000283,53.2161,293.4203,26.9055,333.2083,0.00030151,4.516e-05,0.0,0 STARLINK-3507,1 51753U 22016AR  22330.29556833  .00004516  00000-0  30151-3 0  9992,2 51753  53.2161 293.4203 0002830  26.9055 333.2083 15.08855869 43693,6917.831999999999,95.437,541.655,537.739,0.0
51753.0,STARLINK-3507,PAYLOAD,2022-11-26 21:24:05,15.08847477,0.0002848,53.2159,290.7447,22.9844,337.1275,0.00022241,3.254e-05,0.0,0 STARLINK-3507,1 51753U 22016AR  22330.89173056  .00003254  00000-0  22241-3 0  9999,2 51753  53.2159 290.7447 0002848  22.9844 337.1275 15.08847477 43783,6917.858,95.437,541.693,537.752,0.0
51753.0,STARLINK-3507,PAYLOAD,2022-11-27 06:56:24,15.08840753,0.0002873,53.216,288.9607,24.1295,335.9831,3.7512e-05,3.08e-06,0.0,0 STARLINK-3507,1 51753U 22016AR  22331.28917229  .00000308  00000-0  37512-4 0  9996,2 51753  53.2160 288.9607 0002873  24.1295 335.9831 15.08840753 43845,6917.878000000002,95.438,541.731,537.756,0.0
51753.0,STARLINK-3507,PAYLOAD,2022-11-27 21:14:53,15.08836435,0.0002927,53.2163,286.284,25.4253,334.6883,-4.9685e-05,-1.079e-05,0.0,0 STARLINK-3507,1 51753U 22016AR  22331.88534160 -.00001079  00000-0 -49685-4 0  9993,2 51753  53.2163 286.2840 0002927  25.4253 334.6883 15.08836435 43931,6917.891,95.438,541.781,537.731,0.0
51753.0,STARLINK-3507,PAYLOAD,2022-11-28 03:36:25,15.08842053,0.0002849,53.2175,285.0947,23.8454,336.267,-3.7543e-05,-8.86e-06,0.0,0 STARLINK-3507,1 51753U 22016AR  22332.15029784 -.00000886  00000-0 -37543-4 0  9990,2 51753  53.2175 285.0947 0002849  23.8454 336.2670 15.08842053 42919,6917.874,95.437,541.71,537.768,0.0
51753.0,STARLINK-3507,PAYLOAD,2022-11-28 21:05:41,15.08822841,0.0002973,53.2147,281.8217,28.4919,331.6235,-2.1432e-05,-6.3e-06,0.0,0 STARLINK-3507,1 51753U 22016AR  22332.87894984 -.00000630  00000-0 -21432-4 0  9998,2 51753  53.2147 281.8217 0002973  28.4919 331.6235 15.08822841 44086,6917.933000000001,95.439,541.855,537.741,0.0
51753.0,STARLINK-3507,PAYLOAD,2022-11-29 06:37:59,15.08838706,0.0002866,53.2166,280.0379,33.0271,327.0899,-2.6939e-05,-7.17e-06,0.0,0 STARLINK-3507,1 51753U 22016AR  22333.27638488 -.00000717  00000-0 -26939-4 0  9991,2 51753  53.2166 280.0379 0002866  33.0271 327.0899 15.08838706 44140,6917.884,95.438,541.732,537.7669999999998,0.0
51753.0,STARLINK-3507,PAYLOAD,2022-11-29 20:56:27,15.08841565,0.0002928,53.2165,277.3625,32.1075,328.0095,0.00017328,2.471e-05,0.0,0 STARLINK-3507,1 51753U 22016AR  22333.87254268  .00002471  00000-0  17328-3 0  9995,2 51753  53.2165 277.3625 0002928  32.1075 328.0095 15.08841565 43171,6917.876,95.437,541.766,537.715,0.0
51753.0,STARLINK-3507,PAYLOAD,2022-11-30 12:50:19,15.08840133,0.0003033,53.2156,274.3892,31.4663,328.651,0.00013131,1.802e-05,0.0,0 STARLINK-3507,1 51753U 22016AR  22334.53494883  .00001802  00000-0  13131-3 0  9993,2 51753  53.2156 274.3892 0003033  31.4663 328.6510 15.08840133 43276,6917.88,95.438,541.8430000000002,537.6469999999998,0.0
51753.0,STARLINK-3507,PAYLOAD,2022-12-01 04:44:10,15.08841829,0.0003088,53.2157,271.4152,32.1161,328.0018,0.00010927,1.451e-05,0.0,0 STARLINK-3507,1 51753U 22016AR  22335.19734808  .00001451  00000-0  10927-3 0  9990,2 51753  53.2157 271.4152 0003088  32.1161 328.0018 15.08841829 43376,6917.875,95.437,541.876,537.604,0.0
51753.0,STARLINK-3507,PAYLOAD,2022-12-02 04:34:57,15.08849553,0.0003113,53.2159,266.9546,32.7392,327.3792,0.00017025,2.423e-05,0.0,0 STARLINK-3507,1 51753U 22016AR  22336.19094064  .00002423  00000-0  17025-3 0  9990,2 51753  53.2159 266.9546 0003113  32.7392 327.3792 15.08849553 44582,6917.851,95.437,541.87,537.563,0.0
51753.0,STARLINK-3507,PAYLOAD,2022-12-02 12:31:53,15.08843521,0.0003188999999999,53.2158,265.4679,32.2858,327.8329,5.6408e-05,6.09e-06,0.0,0 STARLINK-3507,1 51753U 22016AR  22336.52214507  .00000609  00000-0  56408-4 0  9996,2 51753  53.2158 265.4679 0003189  32.2858 327.8329 15.08843521 44633,6917.87,95.437,541.941,537.529,0.0
51753.0,STARLINK-3507,PAYLOAD,2022-12-02 20:28:50,15.08826226,0.0003183,53.2169,263.9813,33.9829,326.1367,-5.1161e-05,-1.103e-05,0.0,0 STARLINK-3507,1 51753U 22016AR  22336.85336119 -.00001103  00000-0 -51161-4 0  9999,2 51753  53.2169 263.9813 0003183  33.9829 326.1367 15.08826226 44680,6917.922,95.438,541.989,537.586,0.0
51753.0,STARLINK-3507,PAYLOAD,2022-12-03 12:22:41,15.0883681,0.0003312,53.2173,261.0079,37.9825,322.14,-3.7405e-06,-3.48e-06,0.0,0 STARLINK-3507,1 51753U 22016AR  22337.51575691 -.00000348  00000-0 -37405-5 0  9999,2 51753  53.2173 261.0079 0003312  37.9825 322.1400 15.08836810 44787,6917.89,95.438,542.0459999999998,537.464,0.0
51753.0,STARLINK-3507,PAYLOAD,2022-12-03 18:44:13,15.0884188,0.0003143,53.2171,259.8179,37.9202,322.2011,6.4113e-05,7.32e-06,0.0,0 STARLINK-3507,1 51753U 22016AR  22337.78071140  .00000732  00000-0  64113-4 0  9998,2 51753  53.2171 259.8179 0003143  37.9202 322.2011 15.08841880 43761,6917.875,95.437,541.914,537.565,0.0
51753.0,STARLINK-3507,PAYLOAD,2022-12-04 01:05:45,15.08847737,0.0003333,53.2168,258.6289,36.042,324.0796,0.0001225,1.662e-05,0.0,0 STARLINK-3507,1 51753U 22016AR  22338.04566684  .00001662  00000-0  12250-3 0  9997,2 51753  53.2168 258.6289 0003333  36.0420 324.0796 15.08847737 44868,6917.857,95.437,542.0269999999998,537.4159999999998,0.0
51753.0,STARLINK-3507,PAYLOAD,2022-12-04 12:13:27,15.08849843,0.0003287,53.2166,256.5474,38.1488,321.9736,0.00022088,3.2299999999999986e-05,0.0,0 STARLINK-3507,1 51753U 22016AR  22338.50934717  .00003230  00000-0  22088-3 0  9997,2 51753  53.2166 256.5474 0003287  38.1488 321.9736 15.08849843 43874,6917.85,95.437,541.989,537.441,0.0
51753.0,STARLINK-3507,PAYLOAD,2022-12-05 04:07:19,15.08844004,0.0003188999999999,53.216,253.5734,36.9483,323.1729,0.00019639,2.839e-05,0.0,0 STARLINK-3507,1 51753U 22016AR  22339.17174960  .00002839  00000-0  19639-3 0  9999,2 51753  53.2160 253.5734 0003189  36.9483 323.1729 15.08844004 45036,6917.868,95.437,541.939,537.5269999999998,0.0
51753.0,STARLINK-3507,PAYLOAD,2022-12-05 12:04:14,15.08854665,0.0003188999999999,53.2158,252.0868,36.8198,323.3012,0.00025964,3.848e-05,0.0,0 STARLINK-3507,1 51753U 22016AR  22339.50294288  .00003848  00000-0  25964-3 0  9991,2 51753  53.2158 252.0868 0003189  36.8198 323.3012 15.08854665 45083,6917.8359999999975,95.437,541.9069999999998,537.494,0.0
51753.0,STARLINK-3507,PAYLOAD,2022-12-05 20:01:09,15.08858001,0.0003205,53.2159,250.5999,38.1209,322.001,0.00022928,3.364e-05,0.0,0 STARLINK-3507,1 51753U 22016AR  22339.83413861  .00003364  00000-0  22928-3 0  9997,2 51753  53.2159 250.5999 0003205  38.1209 322.0010 15.08858001 44079,6917.825,95.436,541.908,537.4730000000002,0.0
